{
  "type": "FeatureCollection",
  "features": [
    {
      "type": "Feature",
      "properties": {
        "norad_id": 36420,
        "name": "COSMOS 2251 DEB",
        "group": "cosmos-2251-debris",
        "lat": 23.046665444299755,
        "lon": -104.30558219633208,
        "alt_km": 759.6005947537351,
        "timestamp": "2025-12-27T07:26:25.617811+00:00",
        "meta_object_name": "COSMOS 2251 DEB",
        "meta_object_id": "1993-036AZT",
        "meta_epoch": "2025-12-21T02:55:38.256384",
        "meta_mean_motion": 14.36907864,
        "meta_eccentricity": 0.00184562,
        "meta_inclination": 74.0376,
        "meta_ra_of_asc_node": 260.0713,
        "meta_arg_of_pericenter": 346.0954,
        "meta_mean_anomaly": 80.7548,
        "meta_ephemeris_type": 0,
        "meta_classification_type": "U",
        "meta_norad_cat_id": 36420,
        "meta_element_set_no": 999,
        "meta_rev_at_epoch": 85157,
        "meta_bstar": 0.00010545411,
        "meta_mean_motion_dot": 2.86e-06,
        "meta_mean_motion_ddot": 0,
        "tle_line1": "1 36420U 93036AZT 25355.12197056  .00000286  00000+0  10545-3 0  9990",
        "tle_line2": "2 36420  74.0376 260.0713 0018456 346.0954  80.7548 14.36907864851574"
      },
      "geometry": {
        "type": "Point",
        "coordinates": [
          -104.30558219633208,
          23.046665444299755
        ]
      }
    },
    {
      "type": "Feature",
      "properties": {
        "norad_id": 36430,
        "name": "COSMOS 2251 DEB",
        "group": "cosmos-2251-debris",
        "lat": -65.40738648607103,
        "lon": 43.27360187293429,
        "alt_km": 769.9351235254071,
        "timestamp": "2025-12-27T07:26:25.617821+00:00",
        "meta_object_name": "COSMOS 2251 DEB",
        "meta_object_id": "1993-036BAD",
        "meta_epoch": "2025-12-22T23:31:00.132096",
        "meta_mean_motion": 14.27817368,
        "meta_eccentricity": 0.00978453,
        "meta_inclination": 74.0045,
        "meta_ra_of_asc_node": 89.9408,
        "meta_arg_of_pericenter": 238.1166,
        "meta_mean_anomaly": 121.0434,
        "meta_ephemeris_type": 0,
        "meta_classification_type": "U",
        "meta_norad_cat_id": 36430,
        "meta_element_set_no": 999,
        "meta_rev_at_epoch": 64703,
        "meta_bstar": 0.00047484504,
        "meta_mean_motion_dot": 1.209e-05,
        "meta_mean_motion_ddot": 0,
        "tle_line1": "1 36430U 93036BAD 25356.97986264  .00001209  00000+0  47485-3 0  9991",
        "tle_line2": "2 36430  74.0045  89.9408 0097845 238.1166 121.0434 14.27817368647038"
      },
      "geometry": {
        "type": "Point",
        "coordinates": [
          43.27360187293429,
          -65.40738648607103
        ]
      }
    },
    {
      "type": "Feature",
      "properties": {
        "norad_id": 36437,
        "name": "COSMOS 2251 DEB",
        "group": "cosmos-2251-debris",
        "lat": 25.821464751678153,
        "lon": 13.560624197580319,
        "alt_km": 671.0377539898564,
        "timestamp": "2025-12-27T07:26:25.617832+00:00",
        "meta_object_name": "COSMOS 2251 DEB",
        "meta_object_id": "1993-036BAL",
        "meta_epoch": "2025-12-26T18:15:34.004736",
        "meta_mean_motion": 14.70914631,
        "meta_eccentricity": 0.00229441,
        "meta_inclination": 73.9426,
        "meta_ra_of_asc_node": 6.6213,
        "meta_arg_of_pericenter": 237.1845,
        "meta_mean_anomaly": 122.7117,
        "meta_ephemeris_type": 0,
        "meta_classification_type": "U",
        "meta_norad_cat_id": 36437,
        "meta_element_set_no": 999,
        "meta_rev_at_epoch": 66257,
        "meta_bstar": 0.0014293538,
        "meta_mean_motion_dot": 8.767e-05,
        "meta_mean_motion_ddot": 0,
        "tle_line1": "1 36437U 93036BAL 25360.76081024  .00008767  00000+0  14294-2 0  9997",
        "tle_line2": "2 36437  73.9426   6.6213 0022944 237.1845 122.7117 14.70914631662578"
      },
      "geometry": {
        "type": "Point",
        "coordinates": [
          13.560624197580319,
          25.821464751678153
        ]
      }
    },
    {
      "type": "Feature",
      "properties": {
        "norad_id": 36439,
        "name": "COSMOS 2251 DEB",
        "group": "cosmos-2251-debris",
        "lat": -9.862973900349038,
        "lon": 10.597122704086942,
        "alt_km": 766.6898582297017,
        "timestamp": "2025-12-27T07:26:25.617842+00:00",
        "meta_object_name": "COSMOS 2251 DEB",
        "meta_object_id": "1993-036BAN",
        "meta_epoch": "2025-12-24T18:55:29.525952",
        "meta_mean_motion": 13.47827423,
        "meta_eccentricity": 0.04286024,
        "meta_inclination": 73.9682,
        "meta_ra_of_asc_node": 17.4852,
        "meta_arg_of_pericenter": 346.947,
        "meta_mean_anomaly": 12.0809,
        "meta_ephemeris_type": 0,
        "meta_classification_type": "U",
        "meta_norad_cat_id": 36439,
        "meta_element_set_no": 999,
        "meta_rev_at_epoch": 58775,
        "meta_bstar": 0.001418873,
        "meta_mean_motion_dot": 1.511e-05,
        "meta_mean_motion_ddot": 0,
        "tle_line1": "1 36439U 93036BAN 25358.78853618  .00001511  00000+0  14189-2 0  9997",
        "tle_line2": "2 36439  73.9682  17.4852 0428602 346.9470  12.0809 13.47827423587757"
      },
      "geometry": {
        "type": "Point",
        "coordinates": [
          10.597122704086942,
          -9.862973900349038
        ]
      }
    },
    {
      "type": "Feature",
      "properties": {
        "norad_id": 36441,
        "name": "COSMOS 2251 DEB",
        "group": "cosmos-2251-debris",
        "lat": -36.153506821172044,
        "lon": 151.68634650353886,
        "alt_km": 622.6846995110227,
        "timestamp": "2025-12-27T07:26:25.617852+00:00",
        "meta_object_name": "COSMOS 2251 DEB",
        "meta_object_id": "1993-036BAQ",
        "meta_epoch": "2025-12-24T06:47:11.580288",
        "meta_mean_motion": 15.06947099,
        "meta_eccentricity": 0.01081187,
        "meta_inclination": 73.8372,
        "meta_ra_of_asc_node": 325.7458,
        "meta_arg_of_pericenter": 62.0973,
        "meta_mean_anomaly": 299.1114,
        "meta_ephemeris_type": 0,
        "meta_classification_type": "U",
        "meta_norad_cat_id": 36441,
        "meta_element_set_no": 999,
        "meta_rev_at_epoch": 87139,
        "meta_bstar": 0.00056857521,
        "meta_mean_motion_dot": 9.688e-05,
        "meta_mean_motion_ddot": 0,
        "tle_line1": "1 36441U 93036BAQ 25358.28277292  .00009688  00000+0  56858-3 0  9996",
        "tle_line2": "2 36441  73.8372 325.7458 0108118  62.0973 299.1114 15.06947099871395"
      },
      "geometry": {
        "type": "Point",
        "coordinates": [
          151.68634650353886,
          -36.153506821172044
        ]
      }
    },
    {
      "type": "Feature",
      "properties": {
        "norad_id": 36442,
        "name": "COSMOS 2251 DEB",
        "group": "cosmos-2251-debris",
        "lat": -57.599079522588305,
        "lon": -145.03194383953664,
        "alt_km": 466.99171076129824,
        "timestamp": "2025-12-27T07:26:25.617862+00:00",
        "meta_object_name": "COSMOS 2251 DEB",
        "meta_object_id": "1993-036BAR",
        "meta_epoch": "2025-12-21T18:51:31.867200",
        "meta_mean_motion": 15.32486394,
        "meta_eccentricity": 0.00080169,
        "meta_inclination": 73.9482,
        "meta_ra_of_asc_node": 19.8637,
        "meta_arg_of_pericenter": 316.0651,
        "meta_mean_anomaly": 43.9914,
        "meta_ephemeris_type": 0,
        "meta_classification_type": "U",
        "meta_norad_cat_id": 36442,
        "meta_element_set_no": 999,
        "meta_rev_at_epoch": 86054,
        "meta_bstar": 0.0050536247,
        "meta_mean_motion_dot": 0.00162161,
        "meta_mean_motion_ddot": 0,
        "tle_line1": "1 36442U 93036BAR 25355.78578550  .00162161  00000+0  50536-2 0  9992",
        "tle_line2": "2 36442  73.9482  19.8637 0008016 316.0651  43.9914 15.32486394860543"
      },
      "geometry": {
        "type": "Point",
        "coordinates": [
          -145.03194383953664,
          -57.599079522588305
        ]
      }
    },
    {
      "type": "Feature",
      "properties": {
        "norad_id": 36451,
        "name": "COSMOS 2251 DEB",
        "group": "cosmos-2251-debris",
        "lat": -51.74529846057719,
        "lon": -72.33271487487364,
        "alt_km": 967.6892766998035,
        "timestamp": "2025-12-27T07:26:25.617873+00:00",
        "meta_object_name": "COSMOS 2251 DEB",
        "meta_object_id": "1993-036BBA",
        "meta_epoch": "2025-12-17T15:51:47.903904",
        "meta_mean_motion": 14.18761243,
        "meta_eccentricity": 0.01833733,
        "meta_inclination": 73.9538,
        "meta_ra_of_asc_node": 326.3887,
        "meta_arg_of_pericenter": 149.6881,
        "meta_mean_anomaly": 211.5024,
        "meta_ephemeris_type": 0,
        "meta_classification_type": "U",
        "meta_norad_cat_id": 36451,
        "meta_element_set_no": 999,
        "meta_rev_at_epoch": 84295,
        "meta_bstar": 0.0004725236,
        "meta_mean_motion_dot": 1.135e-05,
        "meta_mean_motion_ddot": 0,
        "tle_line1": "1 36451U 93036BBA 25351.66097111  .00001135  00000+0  47252-3 0  9999",
        "tle_line2": "2 36451  73.9538 326.3887 0183373 149.6881 211.5024 14.18761243842955"
      },
      "geometry": {
        "type": "Point",
        "coordinates": [
          -72.33271487487364,
          -51.74529846057719
        ]
      }
    }
  ]
}